     2.10           N: GPS NAV DATA                         RINEX VERSION / TYPE
teqc  2008Oct2      gpsops              20090115 00:05:38UTCPGM / RUN BY / DATE
Linux 2.4.20-8|Pentium IV|gcc -static|Linux|486/DX+         COMMENT
soc2rnx ver 1.20    gpsops              15-Jan-2009 00:05:34COMMENT
Forced Modulo Decimation to 30 seconds                      COMMENT
MADR                                    MARKER NAME         COMMENT
13407S012                               MARKER NUMBER       COMMENT
4849202.3940 -360328.9929 4114913.1862                      COMMENT
                                                            COMMENT
This data is provided as a public service by NASA/JPL.      COMMENT
No warranty is expressed or implied regarding suitability   COMMENT
for use.  For further information, contact:                 COMMENT
Dave Stowers, NASA/JPL m/s 238-600                          COMMENT
4800 Oak Grove Drive, Pasadena CA 91109 USA                 COMMENT
                                                            END OF HEADER
 8 09  1 14 22  0  0.0-1.863799989223D-04-1.591615728103D-12 0.000000000000D+00
    4.500000000000D+01 2.843750000000D+01 4.209103897501D-09-1.669500012325D+00
    1.277774572372D-06 1.050901645795D-02 4.222616553307D-06 5.153686506271D+03
    3.384000000000D+05-6.705522537231D-08-1.099364909030D+00-1.564621925354D-07
    9.866092604416D-01 3.136562500000D+02 2.971093919725D+00-8.154268229431D-09
    3.900162457421D-10 1.000000000000D+00 1.514000000000D+03 0.000000000000D+00
    2.800000000000D+00 0.000000000000D+00-4.190951585770D-09 4.500000000000D+01
    3.312000000000D+05
 7 09  1 14 22  0  0.0 2.332869917154D-05-2.273736754432D-13 0.000000000000D+00
    1.290000000000D+02 4.046875000000D+01 4.639836124941D-09-1.001475441278D+00
    1.987442374229D-06 2.304951311089D-03 3.926455974579D-06 5.153677330017D+03
    3.384000000000D+05-2.421438694000D-08-1.156997400626D+00-1.154839992523D-07
    9.654153049883D-01 3.067812500000D+02 2.918325817996D+00-8.364634134872D-09
    2.878691337620D-10 1.000000000000D+00 1.514000000000D+03 0.000000000000D+00
    2.000000000000D+00 0.000000000000D+00-1.071020960808D-08 1.290000000000D+02
    3.312000000000D+05
10 09  1 14 22  0  0.0-9.496696293354D-06-5.684341886081D-13 0.000000000000D+00
    9.900000000000D+01-3.303125000000D+01 4.769127224720D-09 1.699590323719D+00
   -1.603737473488D-06 8.455446804874D-03 7.702037692070D-06 5.153767990112D+03
    3.384000000000D+05-1.173466444016D-07 3.056390171719D+00 5.960464477539D-08
    9.605083325017D-01 2.357187500000D+02 5.799369279923D-01-8.244629136182D-09
   -5.589518540169D-10 1.000000000000D+00 1.514000000000D+03 0.000000000000D+00
    4.000000000000D+00 0.000000000000D+00-2.793967723846D-09 9.900000000000D+01
    3.312000000000D+05
 4 09  1 14 22  0  0.0-2.999338321388D-04-1.341504685115D-11 0.000000000000D+00
    1.400000000000D+01 4.803125000000D+01 5.419511458691D-09-2.629223129400D+00
    2.326443791389D-06 8.637955877930D-03 5.900859832764D-06 5.153655843735D+03
    3.384000000000D+05-5.215406417847D-08 1.991394167663D+00-2.477318048477D-07
    9.408238261630D-01 2.559062500000D+02 4.640070207378D-01-8.488567868638D-09
    2.821546100149D-10 1.000000000000D+00 1.514000000000D+03 0.000000000000D+00
    2.000000000000D+00 0.000000000000D+00-6.053596735001D-09 1.400000000000D+01
    3.312000000000D+05
 2 09  1 14 22  0  0.0 1.616282388568D-04-1.818989403546D-12 0.000000000000D+00
    5.100000000000D+01 4.296875000000D+01 5.462013229061D-09 8.139058534400D-01
    2.168118953705D-06 8.899262407795D-03 5.731359124184D-06 5.153596548080D+03
    3.384000000000D+05 1.341104507446D-07 1.972844533191D+00-4.842877388000D-08
    9.415723735487D-01 2.568125000000D+02 2.699233670763D+00-8.585000456871D-09
    2.057228548969D-10 1.000000000000D+00 1.514000000000D+03 0.000000000000D+00
    2.000000000000D+00 0.000000000000D+00-1.722946763039D-08 5.100000000000D+01
    3.312000000000D+05
13 09  1 14 22  0  0.0 2.849716693163D-04 1.364242052659D-12 0.000000000000D+00
    5.600000000000D+01 5.668750000000D+01 3.462644233031D-09 1.506382278023D+00
    2.775341272354D-06 3.676575957797D-03 1.195445656776D-05 5.153771240234D+03
    3.384000000000D+05-3.352761268616D-08-2.150995580868D+00-8.940696716309D-08
    9.953129427563D-01 1.642812500000D+02 1.507555868942D+00-7.576744173236D-09
    4.785913638228D-11 1.000000000000D+00 1.514000000000D+03 0.000000000000D+00
    2.000000000000D+00 0.000000000000D+00-1.117587089539D-08 5.600000000000D+01
    3.312000000000D+05
23 09  1 14 22  0  0.0 3.850776702166D-04 7.958078640513D-13 0.000000000000D+00
    1.200000000000D+01 5.193750000000D+01 4.031596503605D-09 5.763613470093D-01
    2.566725015640D-06 5.764567293227D-03 1.151487231255D-05 5.153660396576D+03
    3.384000000000D+05 9.872019290924D-08-2.199861535874D+00-2.235174179077D-08
    9.709861950496D-01 1.592500000000D+02 2.883670837928D+00-7.902829184557D-09
   -1.857220217820D-11 1.000000000000D+00 1.514000000000D+03 0.000000000000D+00
    2.000000000000D+00 0.000000000000D+00-2.002343535423D-08 1.200000000000D+01
    3.312000000000D+05
25 09  1 14 22  0  0.0 1.741065643728D-04 2.660272002686D-11 0.000000000000D+00
    4.900000000000D+01 5.965625000000D+01 4.491615665250D-09-2.779405515293D+00
    3.039836883545D-06 1.179601263721D-02 4.235655069351D-06 5.153676074982D+03
    3.384000000000D+05 1.229345798492D-07-1.251799613839D+00 5.960464477539D-08
    9.677398686499D-01 3.000000000000D+02-1.237919378345D+00-8.104623304378D-09
    3.264421690552D-10 1.000000000000D+00 1.514000000000D+03 0.000000000000D+00
    4.000000000000D+00 0.000000000000D+00-7.450580596924D-09 4.900000000000D+01
    3.312000000000D+05
27 09  1 14 22  0  0.0 1.630978658795D-05 3.183231456205D-12 0.000000000000D+00
    5.400000000000D+01 5.115625000000D+01 4.376610874839D-09 2.820775546818D+00
    2.464279532433D-06 2.107635594439D-02 4.032626748085D-06 5.155202125549D+03
    3.384000000000D+05 2.533197402954D-07-1.216031132212D+00-1.993030309677D-07
    9.723961437911D-01 3.024062500000D+02-1.662757326345D+00-7.913543916583D-09
    2.339383158984D-10 1.000000000000D+00 1.514000000000D+03 0.000000000000D+00
    2.000000000000D+00 0.000000000000D+00-4.656612873077D-09 5.400000000000D+01
    3.312000000000D+05
26 09  1 14 21 59 44.0 3.617629408836D-05 3.410605131648D-12 0.000000000000D+00
    9.000000000000D+00 4.153125000000D+01 3.738012846096D-09 1.381786617530D-01
    2.440065145493D-06 1.943957328331D-02 1.031160354614D-05 5.153641675949D+03
    3.383840000000D+05-1.285225152969D-07-2.153029304713D+00 2.942979335785D-07
    9.931963475288D-01 1.999062500000D+02 9.650187269149D-01-7.942830850787D-09
    5.714523747137D-12 1.000000000000D+00 1.514000000000D+03 0.000000000000D+00
    2.000000000000D+00 0.000000000000D+00-6.053596735001D-09 9.000000000000D+00
    3.315000000000D+05
10 09  1 14 21 59 44.0-9.505543857813D-06-5.684341886081D-13 0.000000000000D+00
    0.000000000000D+00-3.303125000000D+01 4.769127224720D-09 1.697256153074D+00
   -1.603737473488D-06 8.455448201858D-03 7.702037692070D-06 5.153767990112D+03
    3.383840000000D+05-1.173466444016D-07 3.056390335566D+00 5.960464477539D-08
    9.605083573713D-01 2.357187500000D+02 5.799374941416D-01-8.244629136182D-09
   -5.589518540169D-10 1.000000000000D+00 1.514000000000D+03 0.000000000000D+00
    2.000000000000D+00 0.000000000000D+00-2.793967723846D-09 0.000000000000D+00
    3.327600000000D+05
28 09  1 14 22  0  0.0-2.375105395913D-05 1.136868377216D-13 0.000000000000D+00
    3.900000000000D+01-1.042500000000D+02 4.406969282245D-09 2.289186516504D+00
   -5.520880222321D-06 1.452142978087D-02 6.861984729767D-06 5.153641599655D+03
    3.384000000000D+05 7.823109626770D-08-8.067349815787D-02-2.719461917877D-07
    9.659088993999D-01 2.503437500000D+02-2.066168529127D+00-7.996047353182D-09
   -2.453673633927D-10 1.000000000000D+00 1.514000000000D+03 0.000000000000D+00
    2.000000000000D+00 0.000000000000D+00-1.024454832077D-08 3.900000000000D+01
    3.329100000000D+05
24 09  1 14 22  0  0.0 1.576016657054D-04 3.069544618484D-12 0.000000000000D+00
    5.700000000000D+01 4.425000000000D+01 5.075568560661D-09 2.974468368490D+00
    2.348795533180D-06 7.049453444779D-03 5.595386028290D-06 5.153663917542D+03
    3.384000000000D+05-6.705522537231D-08 2.035319886351D+00 1.657754182816D-07
    9.510107933025D-01 2.664687500000D+02-6.426790340243D-01-8.307131739667D-09
    1.900079145923D-10 1.000000000000D+00 1.514000000000D+03 0.000000000000D+00
    2.800000000000D+00 0.000000000000D+00-1.396983861923D-09 5.700000000000D+01
    3.333600000000D+05
15 09  1 14 22  0  0.0-2.421969547868D-04-5.570655048359D-12 0.000000000000D+00
    6.900000000000D+01 3.743750000000D+01 4.412683805993D-09 1.664649082767D+00
    2.050772309303D-06 1.368207042105D-03 1.027062535286D-05 5.153570209503D+03
    3.384000000000D+05 2.235174179077D-08-2.217971140681D+00-1.862645149231D-09
    9.571125924269D-01 1.759687500000D+02-8.248472942464D-01-8.001761876929D-09
   -3.107272287506D-11 1.000000000000D+00 1.514000000000D+03 0.000000000000D+00
    2.000000000000D+00 0.000000000000D+00-9.778887033463D-09 6.900000000000D+01
    3.343800000000D+05
26 09  1 15  0  0  0.0 3.620097413659D-05 3.410605131648D-12 0.000000000000D+00
    1.000000000000D+01 3.425000000000D+01 3.607650273115D-09 1.190549221965D+00
    2.015382051468D-06 1.944306585938D-02 1.206807792187D-05 5.153650577545D+03
    3.456000000000D+05-3.036111593246D-07-2.153086051305D+00 1.136213541031D-07
    9.931958179524D-01 1.683750000000D+02 9.651735709419D-01-7.889971506126D-09
   -8.964659128322D-11 1.000000000000D+00 1.514000000000D+03 0.000000000000D+00
    2.000000000000D+00 0.000000000000D+00-6.053596735001D-09 1.000000000000D+01
    3.384000000000D+05
